STARLINK-1365_new
1 15590C 20025BM  21326.15087678 -.00000003  00000-0 -17534-6 0  3263
2 15590  53.0541 308.0689 0001748  65.0671  40.8860 15.06399586    11
STARLINK-1365_old
1 25590C 20025BM  21325.12465559 -.00002172  00000-0 -14554-3 0  3251
2 25590  53.0543 312.6756 0001704  64.6742 232.9805 15.06393914    17
